NORAD_CAT_ID,OBJECT_NAME,OBJECT_TYPE,EPOCH,MEAN_MOTION,ECCENTRICITY,INCLINATION,RA_OF_ASC_NODE,ARG_OF_PERICENTER,MEAN_ANOMALY,BSTAR,MEAN_MOTION_DOT,MEAN_MOTION_DDOT,TLE_LINE0,TLE_LINE1,TLE_LINE2,SEMIMAJOR_AXIS,PERIOD,APOGEE,PERIGEE,DECAYED
53745.0,STARLINK-4656,PAYLOAD,2022-09-12 16:00:00,15.77977788,0.0001007,53.2174,235.7149,95.1913,351.0415,-0.0077753,-0.0119519,0.0,0 STARLINK-4656,1 53745U 22107AX  22255.66667824 -.01195190  00000-0 -77753-2 0  9996,2 53745  53.2174 235.7149 0001007  95.1913 351.0415 15.77977788  1304,6714.308000000001,91.256,336.849,335.497,0.0
53745.0,STARLINK-4656,PAYLOAD,2022-09-12 22:00:00,15.77348682,0.0001114,53.2161,234.4687,69.4039,357.5149,-0.0081761,-0.01218621,0.0,0 STARLINK-4656,1 53745U 22107AX  22255.91667824 -.01218621  00000-0 -81761-2 0  9993,2 53745  53.2161 234.4687 0001114  69.4039 357.5149 15.77348682  1305,6716.093000000003,91.292,338.706,337.21,0.0
53745.0,STARLINK-4656,PAYLOAD,2022-09-13 06:00:00,15.76459012,0.0001314,53.2173,232.8123,61.0377,99.2474,-0.0083169,-0.01194328,0.0,0 STARLINK-4656,1 53745U 22107AX  22256.25001157 -.01194328  00000-0 -83169-2 0  9993,2 53745  53.2173 232.8123 0001314  61.0377  99.2474 15.76459012  1399,6718.62,91.344,341.367,339.602,0.0
53745.0,STARLINK-4656,PAYLOAD,2022-09-13 14:00:01,15.75592627,0.0001143,53.2174,231.155,67.456,185.14,-0.0086655,-0.01196943,0.0,0 STARLINK-4656,1 53745U 22107AX  22256.58334491 -.01196943  00000-0 -86655-2 0  9997,2 53745  53.2174 231.1550 0001143  67.4560 185.1400 15.75592627  1304,6721.081999999999,91.394,343.716,342.1790000000001,0.0
53745.0,STARLINK-4656,PAYLOAD,2022-09-13 20:00:01,15.7493943,0.0001198,53.2173,229.9128,68.4869,162.6591,-0.0088885,-0.01193345,0.0,0 STARLINK-4656,1 53745U 22107AX  22256.83334491 -.01193345  00000-0 -88885-2 0  9995,2 53745  53.2173 229.9128 0001198  68.4869 162.6591 15.74939430  1488,6722.941,91.432,345.611,344.0,0.0
53745.0,STARLINK-4656,PAYLOAD,2022-09-13 22:00:00,15.74723772,0.000109,53.2177,229.4995,66.0886,277.7761,-0.0090003,-0.01196493,0.0,0 STARLINK-4656,1 53745U 22107AX  22256.91667824 -.01196493  00000-0 -90003-2 0  9995,2 53745  53.2177 229.4995 0001090  66.0886 277.7761 15.74723772  1301,6723.554,91.445,346.152,344.686,0.0
53745.0,STARLINK-4656,PAYLOAD,2022-09-14 04:00:00,15.73931967,0.0001235,53.2175,228.2619,100.4026,221.2502,-0.0058806,-0.00777773,0.0,0 STARLINK-4656,1 53745U 22107AX  22257.16667824 -.00777773  00000-0 -58806-2 0  9993,2 53745  53.2175 228.2619 0001235 100.4026 221.2502 15.73931967  1537,6725.809,91.491,348.505,346.843,0.0
53745.0,STARLINK-4656,PAYLOAD,2022-09-14 14:00:01,15.7314672,7.53e-05,53.213,226.198,102.9929,60.2486,0.00072341,0.00101911,0.0,0 STARLINK-4656,1 53745U 22107AX  22257.58334491  .00101911  00000-0  72341-3 0  9994,2 53745  53.2130 226.1980 0000753 102.9929  60.2486 15.73146720  1604,6728.047,91.536,350.4190000000001,349.405,0.0
53745.0,STARLINK-4656,PAYLOAD,2022-09-14 22:00:00,15.73223031,9.34e-05,53.2138,224.5474,117.1085,135.0379,0.00057466,0.00080889,0.0,0 STARLINK-4656,1 53745U 22107AX  22257.91667824  .00080889  00000-0  57466-3 0  9991,2 53745  53.2138 224.5474 0000934 117.1085 135.0379 15.73223031  1304,6727.83,91.532,350.3230000000001,349.066,0.0
53745.0,STARLINK-4656,PAYLOAD,2022-09-15 14:00:01,15.73293108,0.0001115999999999,53.2142,221.249,103.6057,326.5915,-0.00049583,-0.00069906,0.0,0 STARLINK-4656,1 53745U 22107AX  22258.58334491 -.00069906  00000-0 -49583-3 0  9996,2 53745  53.2142 221.2490 0001116 103.6057 326.5915 15.73293108  1308,6727.63,91.528,350.246,348.744,0.0
53745.0,STARLINK-4656,PAYLOAD,2022-09-15 22:00:00,15.73284639,0.0001286,53.2144,219.5985,111.369,47.8237,-0.00072121,-0.00100995,0.0,0 STARLINK-4656,1 53745U 22107AX  22258.91667824 -.00100995  00000-0 -72121-3 0  9990,2 53745  53.2144 219.5985 0001286 111.3690  47.8237 15.73284639  1305,6727.654,91.528,350.384,348.654,0.0
53745.0,STARLINK-4656,PAYLOAD,2022-09-16 00:00:00,15.73286583,0.0001185,53.2143,219.1867,110.6973,160.7448,-0.0010345,-0.00143879,0.0,0 STARLINK-4656,1 53745U 22107AX  22259.00001157 -.00143879  00000-0 -10345-2 0  9999,2 53745  53.2143 219.1867 0001185 110.6973 160.7448 15.73286583  1829,6727.648,91.528,350.311,348.716,0.0
53745.0,STARLINK-4656,PAYLOAD,2022-09-16 14:00:01,15.73105353,0.0001223,53.2134,216.3001,108.8988,228.1729,0.00019768,0.00027101,0.0,0 STARLINK-4656,1 53745U 22107AX  22259.58334491  .00027101  00000-0  19768-3 0  9998,2 53745  53.2134 216.3001 0001223 108.8988 228.1729 15.73105353  1305,6728.165,91.539,350.853,349.207,0.0
53745.0,STARLINK-4656,PAYLOAD,2022-09-16 16:00:00,15.73090892,0.0001211999999999,53.2135,215.8874,114.1505,335.1311,0.00053838,0.00075264,0.0,0 STARLINK-4656,1 53745U 22107AX  22259.66667824  .00075264  00000-0  53838-3 0  9995,2 53745  53.2135 215.8874 0001212 114.1505 335.1311 15.73090892  1937,6728.206,91.54,350.88699999999994,349.256,0.0
53745.0,STARLINK-4656,PAYLOAD,2022-09-16 22:00:00,15.73138103,0.0001315999999999,53.2136,214.6503,115.9313,309.9606,0.0004065,0.00056664,0.0,0 STARLINK-4656,1 53745U 22107AX  22259.91667824  .00056664  00000-0  40650-3 0  9994,2 53745  53.2136 214.6503 0001316 115.9313 309.9606 15.73138103  1300,6728.071999999999,91.537,350.82199999999995,349.051,0.0
53745.0,STARLINK-4656,PAYLOAD,2022-09-17 14:00:01,15.73223214,0.000122,53.2138,211.3518,112.1862,131.4963,0.00018098,0.0002488,0.0,0 STARLINK-4656,1 53745U 22107AX  22260.58334491  .00024880  00000-0  18098-3 0  9996,2 53745  53.2138 211.3518 0001220 112.1862 131.4963 15.73223214  1306,6727.829000000002,91.532,350.515,348.87300000000016,0.0
53745.0,STARLINK-4656,PAYLOAD,2022-09-17 22:00:00,15.73278313,0.0001396999999999,53.2139,209.7018,114.4527,218.1892,-0.00045834,-0.00064669,0.0,0 STARLINK-4656,1 53745U 22107AX  22260.91667824 -.00064669  00000-0 -45834-3 0  9991,2 53745  53.2139 209.7018 0001397 114.4527 218.1892 15.73278313  1305,6727.672,91.529,350.477,348.597,0.0
53745.0,STARLINK-4656,PAYLOAD,2022-09-18 04:00:00,15.73238618,0.0001375999999999,53.2134,208.4662,106.0032,203.3903,-0.00013913,-0.00020132,0.0,0 STARLINK-4656,1 53745U 22107AX  22261.16667824 -.00020132  00000-0 -13913-3 0  9999,2 53745  53.2134 208.4662 0001376 106.0032 203.3903 15.73238618  2164,6727.785,91.531,350.576,348.724,0.0
53745.0,STARLINK-4656,PAYLOAD,2022-09-18 14:00:01,15.73214679,0.0001257,53.2131,206.4026,118.2851,32.3904,0.0002343999999999,0.00032424,0.0,0 STARLINK-4656,1 53745U 22107AX  22261.58335648  .00032424  00000-0  23440-3 0  9992,2 53745  53.2131 206.4026 0001257 118.2851  32.3904 15.73214679  1302,6727.853,91.532,350.564,348.87300000000016,0.0
53745.0,STARLINK-4656,PAYLOAD,2022-09-18 22:00:00,15.73256354,0.0001431,53.2133,204.753,120.3434,119.2227,-0.00028068,-0.00039921,0.0,0 STARLINK-4656,1 53745U 22107AX  22261.91667824 -.00039921  00000-0 -28068-3 0  9995,2 53745  53.2133 204.7530 0001431 120.3434 119.2227 15.73256354  2287,6727.735,91.53,350.56199999999984,348.63699999999994,0.0
53745.0,STARLINK-4656,PAYLOAD,2022-09-19 14:00:01,15.73186871,0.0001346,53.2136,201.4537,121.5501,295.9658,-0.00012907,-0.00018684,0.0,0 STARLINK-4656,1 53745U 22107AX  22262.58334491 -.00018684  00000-0 -12907-3 0  9998,2 53745  53.2136 201.4537 0001346 121.5501 295.9658 15.73186871  1302,6727.933000000001,91.534,350.70300000000015,348.892,0.0
53745.0,STARLINK-4656,PAYLOAD,2022-09-19 22:00:00,15.7319078,0.0001501,53.2137,199.8041,119.5542,26.8514,0.00032628,0.00045401,0.0,0 STARLINK-4656,1 53745U 22107AX  22262.91667824  .00045401  00000-0  32628-3 0  9991,2 53745  53.2137 199.8041 0001501 119.5542  26.8514 15.73190780  1304,6727.920999999999,91.534,350.796,348.777,0.0
53745.0,STARLINK-4656,PAYLOAD,2022-09-20 06:00:00,15.73227468,0.0001328,53.2134,198.1564,112.5635,122.7782,-8.5692e-05,-0.00012643,0.0,0 STARLINK-4656,1 53745U 22107AX  22263.25001157 -.00012643  00000-0 -85692-4 0  9994,2 53745  53.2134 198.1564 0001328 112.5635 122.7782 15.73227468  2494,6727.816999999999,91.532,350.575,348.788,0.0
53745.0,STARLINK-4656,PAYLOAD,2022-09-20 14:00:01,15.73181137,0.000144,53.2132,196.5048,123.8613,200.4429,-0.00018895,-0.00027032,0.0,0 STARLINK-4656,1 53745U 22107AX  22263.58334491 -.00027032  00000-0 -18895-3 0  9998,2 53745  53.2132 196.5048 0001440 123.8613 200.4429 15.73181137  2547,6727.949000000001,91.534,350.783,348.845,0.0
53745.0,STARLINK-4656,PAYLOAD,2022-09-20 22:00:01,15.73202108,0.0001479,53.2135,194.8556,124.9563,288.2967,-8.060600000000001e-05,-0.00011918,0.0,0 STARLINK-4656,1 53745U 22107AX  22263.91668981 -.00011918  00000-0 -80606-4 0  9995,2 53745  53.2135 194.8556 0001479 124.9563 288.2967 15.73202108  1309,6727.889,91.533,350.749,348.759,0.0
53745.0,STARLINK-4656,PAYLOAD,2022-09-21 06:00:00,15.73148077,0.0001149999999999,53.2136,193.2077,123.2029,18.9274,0.00050147,0.00070191,0.0,0 STARLINK-4656,1 53745U 22107AX  22264.25001157  .00070191  00000-0  50147-3 0  9991,2 53745  53.2136 193.2077 0001150 123.2029  18.9274 15.73148077  2658,6728.043000000002,91.536,350.682,349.134,0.0
53745.0,STARLINK-4656,PAYLOAD,2022-09-21 22:00:00,15.73266689,0.0001181,53.2142,189.907,135.0137,184.9231,-0.0004048,-0.00057207,0.0,0 STARLINK-4656,1 53745U 22107AX  22264.91667824 -.00057207  00000-0 -40480-3 0  9997,2 53745  53.2142 189.9070 0001181 135.0137 184.9231 15.73266689  2753,6727.705,91.529,350.365,348.776,0.0
53745.0,STARLINK-4656,PAYLOAD,2022-09-22 14:00:01,15.73142687,0.0001202,53.2137,186.6073,139.3316,358.5253,0.00055354,0.00077595,0.0,0 STARLINK-4656,1 53745U 22107AX  22265.58334491  .00077595  00000-0  55354-3 0  9998,2 53745  53.2137 186.6073 0001202 139.3316 358.5253 15.73142687  1308,6728.059,91.537,350.732,349.115,0.0
53745.0,STARLINK-4656,PAYLOAD,2022-09-22 22:00:00,15.73208764,0.0001252,53.2141,184.9586,137.297,89.4394,0.00020686,0.00028521,0.0,0 STARLINK-4656,1 53745U 22107AX  22265.91667824  .00028521  00000-0  20686-3 0  9999,2 53745  53.2141 184.9586 0001252 137.2970  89.4394 15.73208764  2914,6727.87,91.533,350.57800000000015,348.89300000000014,0.0
